{
"type": "FeatureCollection",
"name": "neigh1",
"crs": { "type": "name", "properties": { "name": "urn:ogc:def:crs:OGC:1.3:CRS84" } },
"features": [
{ "type": "Feature", "properties": { "fid": 7202.0, "buurtcode": "BU05991463", "buurtnaam": "Ommoord", "wijkcode": "WK059914", "gemeenteco": "GM0599", "gemeentena": "Rotterdam", "indelingsw": 1, "water": "NEE", "meest_voor": "3068", "dekkingspe": 5, "omgevingsa": 2948, "stedelijkh": 1, "bevolkings": 6002, "aantal_inw": 26105, "mannen": 12155, "vrouwen": 13945, "percentage": 15, "percenta_1": 10, "percenta_2": 23, "percenta_3": 23, "percenta_4": 30, "percenta_5": 46, "percenta_6": 35, "percenta_7": 11, "percenta_8": 8, "aantal_hui": 13280, "percenta_9": 47, "percenta10": 24, "percenta11": 29, "gemiddelde": 1.9, "percenta12": 60, "percenta13": 10, "percenta14": 30, "percenta15": 60, "perc_geb_i": 5, "perc_geb_1": 15, "perc_geb_b": 5, "perc_geb_2": 15, "oppervlakt": 448, "oppervla_1": 435, "oppervla_2": 13, "jrstatcode": "2025BU05991463", "jaar": 2025, "mean_LST_c": 32.610747405048343, "mean_NDVI": 0.60209337728469603, "majority_L": 6.0 }, "geometry": { "type": "MultiPolygon", "coordinates": [ [ [ [ 4.547887590237188, 51.972610568632398 ], [ 4.547910419102894, 51.972588322923102 ], [ 4.547917534582256, 51.972581389544878 ], [ 4.548104757353465, 51.972399087994354 ], [ 4.548082833645966, 51.972388504836793 ], [ 4.54810902836998, 51.9723745975543 ], [ 4.549344041623651, 51.971718944829554 ], [ 4.549569898903321, 51.971587072527718 ], [ 4.54966429488925, 51.971519880695709 ], [ 4.549748993001423, 51.971387452393863 ], [ 4.549821879836593, 51.971303028970325 ], [ 4.54993449760572, 51.971234168911103 ], [ 4.550185599953181, 51.971098430244794 ], [ 4.551001085860424, 51.970657496384085 ], [ 4.551039028656283, 51.970637038377014 ], [ 4.552681149549351, 51.969751619003347 ], [ 4.553367115208754, 51.969381730683494 ], [ 4.553854463872326, 51.969116425072421 ], [ 4.554180792602552, 51.968940762157203 ], [ 4.554197179148448, 51.968930550297102 ], [ 4.554215334525765, 51.968920692527021 ], [ 4.554234482879493, 51.96891143503305 ], [ 4.554252131085238, 51.968903811827204 ], [ 4.554271924566449, 51.968895862242263 ], [ 4.554311394759616, 51.968883117234199 ], [ 4.554331024613806, 51.968877710254489 ], [ 4.554351446741809, 51.968872740333737 ], [ 4.55437156972058, 51.968868990741058 ], [ 4.5543954952453, 51.968865007396545 ], [ 4.554419987447034, 51.968861855010189 ], [ 4.554441749381922, 51.968859968660119 ], [ 4.554466995458989, 51.968858538423369 ], [ 4.554488852449803, 51.968857803278084 ], [ 4.55451275545044, 51.968858170232558 ], [ 4.554543740311562, 51.9688596030228 ], [ 4.554554412630271, 51.968860101030025 ], [ 4.554567902144126, 51.968861706597792 ], [ 4.554762297009525, 51.968894542511208 ], [ 4.555408447626617, 51.968815069888933 ], [ 4.556380166046673, 51.968875419162224 ], [ 4.556406199864769, 51.968805491970748 ], [ 4.556471586106088, 51.968810897480111 ], [ 4.556545349486571, 51.968796137763839 ], [ 4.556690103317691, 51.968719857908475 ], [ 4.556582840920953, 51.968657528668857 ], [ 4.556503357935843, 51.968588204627764 ], [ 4.556516844262355, 51.968556174616431 ], [ 4.556531502029003, 51.968521393376193 ], [ 4.556559372484728, 51.968455209387159 ], [ 4.556585946963097, 51.968466041333969 ], [ 4.556589205118446, 51.968463060350842 ], [ 4.556609724893893, 51.968463798488891 ], [ 4.55663133488668, 51.968462243240126 ], [ 4.556651816770596, 51.968457165480615 ], [ 4.556667400294661, 51.968450201481815 ], [ 4.55668403820267, 51.968437375370847 ], [ 4.556696794969161, 51.968416450095056 ], [ 4.556705523152085, 51.968396179508993 ], [ 4.556848025779138, 51.968055304186237 ], [ 4.557101211162458, 51.967456302215922 ], [ 4.557392267178202, 51.966767635911012 ], [ 4.557476692193264, 51.96656796546165 ], [ 4.55756158743296, 51.966367219634449 ], [ 4.55782639638809, 51.965733485187926 ], [ 4.557894527130959, 51.965570435947484 ], [ 4.557965428594858, 51.965400736657664 ], [ 4.557973778423732, 51.965381191383891 ], [ 4.558056596645693, 51.965191810113872 ], [ 4.558201751487855, 51.9648598505078 ], [ 4.558249077647649, 51.964751610733167 ], [ 4.558276835042041, 51.964688131098114 ], [ 4.558277446060208, 51.964686562398867 ], [ 4.558318798473256, 51.964579511935241 ], [ 4.558334278082719, 51.964539477923843 ], [ 4.558356910523809, 51.964481660928158 ], [ 4.558360577593842, 51.964472194805346 ], [ 4.558369607348697, 51.964448906047103 ], [ 4.558378017180471, 51.964377236267687 ], [ 4.558380245528738, 51.964358214111812 ], [ 4.558382939724829, 51.964335240253781 ], [ 4.558445645116776, 51.96420809787076 ], [ 4.558501676711672, 51.964120853780202 ], [ 4.558526129266641, 51.964071615711255 ], [ 4.55857132409345, 51.963972331411696 ], [ 4.558633253547178, 51.963829624191327 ], [ 4.558740158393409, 51.963582903021248 ], [ 4.558951484509015, 51.963085865428752 ], [ 4.559151148833454, 51.962614183092768 ], [ 4.559206366637207, 51.962484893238624 ], [ 4.559266685775738, 51.962344070934321 ], [ 4.559304774257308, 51.962254381094567 ], [ 4.559416821679168, 51.961987974492708 ], [ 4.559512660703134, 51.961760131684393 ], [ 4.55954116320359, 51.961692342455642 ], [ 4.559694292963445, 51.961328302812646 ], [ 4.55981692671153, 51.961036712320009 ], [ 4.559890581876672, 51.961057068272012 ], [ 4.559941495948712, 51.961071871069755 ], [ 4.560004827416468, 51.961090284708604 ], [ 4.560023044444738, 51.961046045076493 ], [ 4.560022333409419, 51.961045941201363 ], [ 4.560003532143772, 51.961040559630867 ], [ 4.560003098019405, 51.961040430737235 ], [ 4.560002243987471, 51.961040191027259 ], [ 4.560000521541061, 51.961039702517425 ], [ 4.559997410261217, 51.961038781775549 ], [ 4.559995876443429, 51.961038321558128 ], [ 4.559972507962881, 51.961031280924196 ], [ 4.559908589286158, 51.961010786769506 ], [ 4.55992415522908, 51.960973818263014 ], [ 4.5599918963503, 51.960812940273236 ], [ 4.560381681027263, 51.960637194281318 ], [ 4.560566562469352, 51.96056627935743 ], [ 4.560540315524969, 51.960548845755689 ], [ 4.560522285389757, 51.960530831709569 ], [ 4.560520248661123, 51.960531608391442 ], [ 4.560481787512757, 51.960496381377396 ], [ 4.560485952890266, 51.960494576980032 ], [ 4.56013050384451, 51.960228298451511 ], [ 4.560192124684588, 51.960200507528214 ], [ 4.560183791257634, 51.960194786111444 ], [ 4.560201958491025, 51.960150060713957 ], [ 4.560197004304055, 51.960144138343352 ], [ 4.560189432294406, 51.96013973461686 ], [ 4.560194916862543, 51.960109760229223 ], [ 4.560237206860325, 51.960002670715092 ], [ 4.560183559067976, 51.959994158816478 ], [ 4.560627790985199, 51.958947861917387 ], [ 4.561432430615976, 51.957031929756582 ], [ 4.561500587303722, 51.956901624037194 ], [ 4.561578627446874, 51.956705366335747 ], [ 4.561587489418652, 51.956653921126701 ], [ 4.561550367904755, 51.956647955461911 ], [ 4.561569277513071, 51.956605428276823 ], [ 4.561572327835806, 51.956598573405074 ], [ 4.562405608869311, 51.954724236962875 ], [ 4.562382322173911, 51.954727156740397 ], [ 4.562175662493118, 51.954696620039641 ], [ 4.561835366065913, 51.954637586106784 ], [ 4.561002187278775, 51.954504277385638 ], [ 4.560674635806816, 51.954445347588809 ], [ 4.560171061719574, 51.95436243799125 ], [ 4.559857105770281, 51.954315826024185 ], [ 4.559353130687328, 51.954246932323265 ], [ 4.558426637041789, 51.954133622187662 ], [ 4.557548030714531, 51.954034934458491 ], [ 4.556742299786531, 51.953937698574393 ], [ 4.55564935701118, 51.953794948764916 ], [ 4.555598258482404, 51.953788268452072 ], [ 4.554651129782457, 51.953659052468637 ], [ 4.55405074129553, 51.953579565904874 ], [ 4.553755888143297, 51.95354053346707 ], [ 4.553496096454261, 51.953499861235663 ], [ 4.553206401566219, 51.953463560567897 ], [ 4.55292755607456, 51.953422751952793 ], [ 4.552358823744321, 51.953348245247724 ], [ 4.552131374182694, 51.953328653174452 ], [ 4.551838633595529, 51.95330760815515 ], [ 4.551680993049645, 51.953304690573951 ], [ 4.551473247352048, 51.953289461862319 ], [ 4.551469898439282, 51.953297437937515 ], [ 4.551463758422418, 51.953307650322152 ], [ 4.551412251147906, 51.953299545076931 ], [ 4.551309076114824, 51.953535751861708 ], [ 4.551270389794501, 51.953530515166456 ], [ 4.551118045790241, 51.953510304418529 ], [ 4.550792374157664, 51.953465544395193 ], [ 4.550257677498436, 51.95339304931958 ], [ 4.550236955980233, 51.953390241217875 ], [ 4.550246312623308, 51.953369031735967 ], [ 4.55028592249896, 51.953256030004319 ], [ 4.550347655324697, 51.953117460245124 ], [ 4.550320728386525, 51.953113538354181 ], [ 4.550312988538631, 51.953130741433064 ], [ 4.550309378964625, 51.953129277566845 ], [ 4.550303329008848, 51.953129962592392 ], [ 4.550298763729079, 51.953129822241003 ], [ 4.550085672723261, 51.953091596087383 ], [ 4.549932654450377, 51.953071765503694 ], [ 4.548956355268466, 51.952956048394846 ], [ 4.548223110670865, 51.952873427658467 ], [ 4.547160567859883, 51.952741440086811 ], [ 4.545503962589071, 51.952552878765793 ], [ 4.544606092053134, 51.952437327169868 ], [ 4.539183320449884, 51.951705684705495 ], [ 4.538706592443464, 51.951637617747735 ], [ 4.538151637473062, 51.951552355112312 ], [ 4.537577706395249, 51.951455267521411 ], [ 4.537122778819658, 51.95137314956451 ], [ 4.536724875428325, 51.951306453276771 ], [ 4.536301067721898, 51.951217366265858 ], [ 4.535984860078877, 51.95116150559786 ], [ 4.535473060988416, 51.95104867783914 ], [ 4.534842253839066, 51.950898491439659 ], [ 4.534607741728871, 51.950838185509618 ], [ 4.534092457269212, 51.950679484353756 ], [ 4.533640248832719, 51.950523935352223 ], [ 4.533200849284788, 51.950352837371348 ], [ 4.532580578959367, 51.950082528084224 ], [ 4.532557982259992, 51.950069851669852 ], [ 4.532525148942645, 51.95004320440836 ], [ 4.532512436846303, 51.95002784031027 ], [ 4.53249616368569, 51.949993987651766 ], [ 4.532492991881051, 51.949972625555183 ], [ 4.532494175553964, 51.949955528766615 ], [ 4.532572678448358, 51.949493363845292 ], [ 4.532562250039106, 51.949494825114776 ], [ 4.532413721271758, 51.94947936374232 ], [ 4.532179725585246, 51.94944367655912 ], [ 4.5312140790159, 51.949319646307281 ], [ 4.531154514130838, 51.949311913933634 ], [ 4.530980910341391, 51.949279585277075 ], [ 4.530706926479028, 51.949219640252267 ], [ 4.530586992222399, 51.949192232173196 ], [ 4.530425549911923, 51.949160665429112 ], [ 4.53015073602453, 51.949116847676549 ], [ 4.529853825422341, 51.94907463894473 ], [ 4.529651772123239, 51.949050640112397 ], [ 4.529583520907693, 51.949043059322378 ], [ 4.529476249263217, 51.949034357944001 ], [ 4.529223525877152, 51.949019822363361 ], [ 4.529195128659748, 51.949018464625617 ], [ 4.529154804626748, 51.949014008658345 ], [ 4.529109133105918, 51.949005459775726 ], [ 4.529053642079708, 51.948990106719272 ], [ 4.528720312659912, 51.948841230689467 ], [ 4.528543398977079, 51.948923605385282 ], [ 4.528389110801017, 51.948992689046626 ], [ 4.528138386991208, 51.949093400235618 ], [ 4.528245603847665, 51.949205337085289 ], [ 4.528352078372436, 51.949164461357235 ], [ 4.528106724086593, 51.949322037945315 ], [ 4.527889129444252, 51.949473165277603 ], [ 4.527799389647861, 51.949541003000924 ], [ 4.527666008506172, 51.949654543570851 ], [ 4.527545425718221, 51.949768177550531 ], [ 4.527422751096455, 51.949899863301255 ], [ 4.527368048013757, 51.949968675948227 ], [ 4.527262317057033, 51.950134642289981 ], [ 4.527197130993247, 51.950279871612615 ], [ 4.527151974654488, 51.950442595481952 ], [ 4.527135517368911, 51.950603102294025 ], [ 4.527138189380959, 51.950699030728579 ], [ 4.527144822126067, 51.95075525829764 ], [ 4.527176154035136, 51.950896609236622 ], [ 4.527227354802317, 51.951033521250991 ], [ 4.527265567946069, 51.951110379485151 ], [ 4.527310125543977, 51.951185923215213 ], [ 4.52736090783104, 51.951259951111197 ], [ 4.527417783248873, 51.951332269846347 ], [ 4.527480599855545, 51.951402686842457 ], [ 4.527549191057608, 51.951471014807382 ], [ 4.527571622911347, 51.951491733124065 ], [ 4.527594738205367, 51.951512162503079 ], [ 4.52761852693054, 51.951532293882444 ], [ 4.527642976203486, 51.951552116381116 ], [ 4.527668077383604, 51.951571625441098 ], [ 4.527693821916365, 51.951590812010956 ], [ 4.527820839975238, 51.951680817786183 ], [ 4.527969263773487, 51.951769721410543 ], [ 4.528057346079616, 51.951816171987261 ], [ 4.528148748373829, 51.951860104759632 ], [ 4.528243283267094, 51.951901429363431 ], [ 4.528317335824767, 51.951931129394197 ], [ 4.528393007658255, 51.951959227740765 ], [ 4.528470206275782, 51.951985692264543 ], [ 4.528677805914808, 51.952045903857574 ], [ 4.528839592500408, 51.952082769768033 ], [ 4.528901797037082, 51.952093371961176 ], [ 4.52889726324732, 51.95210224661988 ], [ 4.528895102502295, 51.952106838429863 ], [ 4.528892295553027, 51.952111294289097 ], [ 4.528888863432623, 51.95211557929553 ], [ 4.528884832940613, 51.952119661285508 ], [ 4.528880233785637, 51.952123508116713 ], [ 4.528875105840678, 51.952127088619832 ], [ 4.528869486001291, 51.95213037519926 ], [ 4.528863418366663, 51.95213334390742 ], [ 4.528856951433931, 51.952135969031296 ], [ 4.528850133545768, 51.952138232946176 ], [ 4.528843020368936, 51.952140115384523 ], [ 4.528835664523723, 51.952141603247362 ], [ 4.528828125885883, 51.952142684387724 ], [ 4.528820461353294, 51.95214335023185 ], [ 4.528812732101815, 51.952143596732391 ], [ 4.528804997852403, 51.952143419830627 ], [ 4.528797318188776, 51.952142822658132 ], [ 4.528789754149179, 51.952141808357034 ], [ 4.528782365196915, 51.952140386350273 ], [ 4.528775207869185, 51.952138566937656 ], [ 4.528768337162693, 51.95213636490292 ], [ 4.52876180803976, 51.952133796826622 ], [ 4.528681386208326, 51.952099070872343 ], [ 4.52853193116678, 51.952450379588477 ], [ 4.52854942062802, 51.952453230846828 ], [ 4.52846966366812, 51.952638524694741 ], [ 4.528441651511546, 51.952703622657921 ], [ 4.527655901606331, 51.954529103070435 ], [ 4.527654901155218, 51.954532727170729 ], [ 4.527642472016711, 51.954577831232349 ], [ 4.527608374832942, 51.954701517443503 ], [ 4.527593989131732, 51.954723434473991 ], [ 4.527481350122874, 51.954978382982844 ], [ 4.527277845201441, 51.955439001333062 ], [ 4.527253664415195, 51.955493772102528 ], [ 4.527237863074165, 51.955527292065476 ], [ 4.527218347074496, 51.955568658915197 ], [ 4.527060804526498, 51.955902738262267 ], [ 4.526990835509372, 51.956051105410609 ], [ 4.526314793588511, 51.957484557341878 ], [ 4.525705669467678, 51.958900302491699 ], [ 4.525541630215531, 51.959291940375856 ], [ 4.525461698441328, 51.959482776842826 ], [ 4.524559182703091, 51.961777252606161 ], [ 4.524048116891871, 51.96300464103124 ], [ 4.524039743763359, 51.963024651212471 ], [ 4.523863637520178, 51.963435388867438 ], [ 4.523858579314676, 51.963447207752601 ], [ 4.523836794031491, 51.963498031395602 ], [ 4.5238305176255, 51.963512663769642 ], [ 4.523749028132459, 51.963699739339887 ], [ 4.523726756391576, 51.96375465820929 ], [ 4.52365375103967, 51.96392492612069 ], [ 4.523892197466761, 51.96400900160544 ], [ 4.524131712037788, 51.964107117497306 ], [ 4.524364093092857, 51.964197899771193 ], [ 4.52479392988058, 51.964379746175673 ], [ 4.52514166740178, 51.964525484205815 ], [ 4.525392414481288, 51.96462242140835 ], [ 4.5255653935253, 51.964692451719579 ], [ 4.52567221733723, 51.964737008839748 ], [ 4.525768337042917, 51.964778251561221 ], [ 4.525883692455086, 51.964833207896881 ], [ 4.525984642037693, 51.964880598076832 ], [ 4.526093017781071, 51.964935323327282 ], [ 4.526384335302448, 51.965102217291189 ], [ 4.526501353772534, 51.965161589611029 ], [ 4.526624116712941, 51.965209768050762 ], [ 4.5269164416574, 51.96530152308155 ], [ 4.527016388816254, 51.965332995152565 ], [ 4.527454175345576, 51.965488373369453 ], [ 4.527549667228488, 51.965524576391935 ], [ 4.527737676297372, 51.965615566931028 ], [ 4.527821685843205, 51.965658696961668 ], [ 4.527905026006168, 51.965721597027304 ], [ 4.527971387418878, 51.965789676299146 ], [ 4.528009588998165, 51.965846493828671 ], [ 4.528055819974195, 51.965924762930797 ], [ 4.528046637224318, 51.966024379761784 ], [ 4.528038881870597, 51.966125445197484 ], [ 4.528034547123265, 51.966237861289159 ], [ 4.528042984906651, 51.966336797841556 ], [ 4.528067774487113, 51.966440527911551 ], [ 4.528071675641612, 51.966457185368633 ], [ 4.528113889971578, 51.966570480752971 ], [ 4.528153220524805, 51.966644384865134 ], [ 4.528229654325874, 51.966726110362139 ], [ 4.528319757383459, 51.966800744713808 ], [ 4.528428332232329, 51.96687587339904 ], [ 4.528527881593089, 51.966928374640403 ], [ 4.528759909217327, 51.96702363980642 ], [ 4.528836909277725, 51.967045414883032 ], [ 4.529089423200945, 51.967066313164032 ], [ 4.529239651077281, 51.967086464887878 ], [ 4.529471078483884, 51.967129500337904 ], [ 4.529572210214105, 51.967144979081269 ], [ 4.529694497891168, 51.967157555832408 ], [ 4.529839372036021, 51.967176139691908 ], [ 4.530107142521772, 51.967228786944617 ], [ 4.530254298008369, 51.967265094506331 ], [ 4.53041990416043, 51.967318255118087 ], [ 4.530593812203902, 51.967386307182984 ], [ 4.530765522547017, 51.967462792293937 ], [ 4.530969749814298, 51.967558749504697 ], [ 4.531115596914135, 51.967617967446564 ], [ 4.531336930266048, 51.967694543189886 ], [ 4.531525140066452, 51.967745349873255 ], [ 4.531641044724946, 51.967772259953662 ], [ 4.531819313388024, 51.967802589681511 ], [ 4.532104216569869, 51.967834683103078 ], [ 4.532274209332074, 51.967848772455895 ], [ 4.53251041429372, 51.967855252914376 ], [ 4.53287875424942, 51.967861703894712 ], [ 4.533088548190304, 51.9678719463639 ], [ 4.533308282715011, 51.967887474019577 ], [ 4.533519982276649, 51.967904650789805 ], [ 4.533700183376986, 51.967925283970054 ], [ 4.53392246788461, 51.967959794968579 ], [ 4.534102329134241, 51.967990672093165 ], [ 4.534191533192378, 51.968006060339818 ], [ 4.534369794616603, 51.968044565779465 ], [ 4.534472070589567, 51.968068947318557 ], [ 4.534606076014065, 51.96811603030099 ], [ 4.534711376195664, 51.96815742204204 ], [ 4.534885413929805, 51.968226816936237 ], [ 4.534985106983376, 51.968272302566312 ], [ 4.535055351693704, 51.968312900700937 ], [ 4.53512826725658, 51.968358461880207 ], [ 4.535211987535904, 51.968425134640206 ], [ 4.535302081027354, 51.968516392424817 ], [ 4.535357229345107, 51.968601015162392 ], [ 4.53539516511813, 51.968680120060711 ], [ 4.535412188004746, 51.968764646457018 ], [ 4.535426103996681, 51.968874857801367 ], [ 4.535435762366759, 51.96905604839737 ], [ 4.535435636355104, 51.969193034025686 ], [ 4.535427451500143, 51.969363578728583 ], [ 4.535430824479833, 51.969576903050609 ], [ 4.535429409744865, 51.969586267934844 ], [ 4.535393722519511, 51.969821843877533 ], [ 4.535382877650886, 51.969948504850116 ], [ 4.535382668253164, 51.970043872561405 ], [ 4.535398705970079, 51.970134324294214 ], [ 4.535420148266953, 51.97020072566476 ], [ 4.535465806727556, 51.970264066468708 ], [ 4.535522285433811, 51.970317058798372 ], [ 4.535609270320466, 51.970372968532047 ], [ 4.535686912634338, 51.970415057989889 ], [ 4.535782340945393, 51.97044783808176 ], [ 4.535874208347591, 51.970476547447873 ], [ 4.53598266180896, 51.970497826323864 ], [ 4.53609329508456, 51.97050393011007 ], [ 4.536178172303114, 51.970502207140655 ], [ 4.536302156565185, 51.970487284070011 ], [ 4.536443223784658, 51.970454057755866 ], [ 4.536943762452823, 51.970289679472103 ], [ 4.537164918954128, 51.970223144073955 ], [ 4.537410969756742, 51.970163799221389 ], [ 4.537955468163005, 51.970044677289664 ], [ 4.538121755223969, 51.970009024344364 ], [ 4.538287714301534, 51.969967616085171 ], [ 4.53845757462526, 51.969927673919408 ], [ 4.538607820223731, 51.969901432478956 ], [ 4.538932168087856, 51.969864851133842 ], [ 4.539155406029646, 51.969841921799237 ], [ 4.539316011060269, 51.969837326812076 ], [ 4.539502856404621, 51.969838044212729 ], [ 4.539666007099712, 51.969845062403387 ], [ 4.539855094918446, 51.969865750121244 ], [ 4.539951359985215, 51.969885139818125 ], [ 4.540307107844558, 51.969996823283203 ], [ 4.54046115567411, 51.970062110923159 ], [ 4.540939706504863, 51.970283258762137 ], [ 4.541063348130786, 51.970340416877995 ], [ 4.541245904427355, 51.970422088030482 ], [ 4.542159259461705, 51.970800511529681 ], [ 4.542250283984337, 51.970835591747466 ], [ 4.542568570464662, 51.970927943358134 ], [ 4.542778763971726, 51.970995159100511 ], [ 4.543023162347883, 51.971077630904368 ], [ 4.543179808354052, 51.971144461643554 ], [ 4.543337994801755, 51.971222269322581 ], [ 4.543663870664905, 51.971398895629505 ], [ 4.543880936575661, 51.971534292296667 ], [ 4.544029483083734, 51.971621827502055 ], [ 4.544326330698562, 51.971755817650809 ], [ 4.544535842715136, 51.971836418352204 ], [ 4.544722323083122, 51.971911280798437 ], [ 4.544890838119549, 51.971989609753003 ], [ 4.545148071465622, 51.972125381522964 ], [ 4.545419833937255, 51.972254784891405 ], [ 4.545630067165387, 51.972351478378229 ], [ 4.545887042170422, 51.972439157627051 ], [ 4.546467892700023, 51.972593869343783 ], [ 4.546860227162114, 51.972688985538525 ], [ 4.547159871302121, 51.972752158233085 ], [ 4.547370508330315, 51.97278871771114 ], [ 4.547502862314255, 51.972801078038486 ], [ 4.547686282475619, 51.972806611772043 ], [ 4.547887590237188, 51.972610568632398 ] ] ] ] } }
]
}
